#cP2020  3  2  0  0  0.00000000      96   u+U IGS14 FIT  GFZ                    
## 2095  86400.00000000   900.00000000 58910 0.0000000000000                    
+   52   G01G02G03G04G05G06G07G08G09G10G11G12G13G14G15G16G17                    
+        G18G19G20G21G22G23G24G25G26G27G28G29G30G31G32R01R02                    
+        R03R05R07R08R09R11R12R13R14R15R16R17R18R19R20R21R22                    
+        R23 00 00 00 00 00 00 00 00 00 00 00 00 00 00 00 00                    
+         00 00 00 00 00 00 00 00 00 00 00 00 00 00 00 00 00                    
++         5  6  7  8  7  7  6  6  5  5  7  6  6  6  6  5  5                    
++         7  5  6  8  5  5  5  5  5  7  6  6  7  6  7 10  6                    
++         6  6  6  7  5  5  9  7  6  7 10  5  6 10  8  8  5                    
++         5  0  0  0  0  0  0  0  0  0  0  0  0  0  0  0  0                    
++         0  0  0  0  0  0  0  0  0  0  0  0  0  0  0  0  0                    
%c M  cc GPS ccc cccc cccc cccc cccc ccccc ccccc ccccc ccccc                    
%c cc cc ccc ccc cccc cccc cccc cccc ccccc ccccc ccccc ccccc                    
%f  1.2500000  1.025000000  0.00000000000  0.000000000000000                    
%f  0.0000000  0.000000000  0.00000000000  0.000000000000000                    
%i    0    0    0    0      0      0      0      0         0                    
%i    0    0    0    0      0      0      0      0         0                    
/* PCV:IGS14_2091 OL/AL:FES2004  NONE     YN CLK:CoN ORB:CoN                    
/*     GeoForschungsZentrum Potsdam                                             
/*                                                                              
/*                                                                              
*  2020  3  2  7  0  0.00000000                                                 
PG01  -4399.293990  16813.245089 -20190.743578   -312.446225                    
PG02  21823.419449 -14730.976673   3771.150893   -414.557855                    
PG03   7338.823941  19457.320647 -16633.286319   -107.535441                    
PG04    -16.682294  26105.967204   4828.724510    -56.475784                    
PG05  13615.262440  -8806.177631  20933.632912     -8.451370                    
PG06  24833.055538  -5751.857794  -7486.573679   -221.458363                    
PG07  14191.038753   9767.700411  20622.203574   -226.546935                    
PG08  -6503.448411  24799.327826   6442.641339    -25.648362                    
PG09   8121.050718  21109.868699  13857.503792   -167.572255                    
PG10 -23401.245696 -10386.072776  -7425.891996   -263.542546                    
PG11 -10217.140057  23260.111575  -8737.448480   -345.758818                    
PG12  -3578.634752 -19063.355005 -18453.328223    145.288869                    
PG13  12962.638713 -19722.441989  11978.785485     -8.868214                    
PG14 -15505.966155   6490.518058 -20183.846286    -28.996072                    
PG15   3829.434316 -25478.143112   5255.705479   -247.831410                    
PG16 -13910.180417   6963.035394  21385.905566   -130.431551                    
PG17  13835.028633   4913.443263 -21713.468154    225.170861                    
PG18 -12083.957287  18413.401904 -15288.090026      5.191575                    
PG19  15455.828482  -3863.755464 -21546.364223   -191.363724                    
PG20 -21715.571700 -14954.920610   3945.102817    527.879289                    
PG21 -15332.312096  -8511.503265  20672.577930    -33.499131                    
PG22   -852.188849  17026.972172 -20169.363584   -785.250413                    
PG23   2305.606788  25677.404799   5843.956108   -132.604335                    
PG24   5532.811630 -18279.412978 -18503.766594     -9.809698                    
PG25 -15017.866948 -19615.863617 -10341.450692    -10.970816                    
PG26 -20815.504595    390.139909  16585.737928    159.308302                    
PG27 -12171.546904  17515.057696  15483.591445   -226.724619                    
PG28  22035.047830  11562.436007  -8490.472510    735.714346                    
PG29  -5064.245138 -22474.296178  13167.436283    -46.398821                    
PG30  22542.401566   1922.296091  14104.173034   -165.860644                    
PG31 -25431.414720   7021.620993  -4802.676594    -26.751082                    
PG32 -14946.286699  -3601.785373 -21596.358977    226.074370                    
PR01 -14899.080931 -13865.632000 -15364.886329     57.915929                    
PR02  -8797.383814   6812.534805 -22910.433379    414.641900                    
PR03   1889.622666  20776.584066 -14602.275044     10.830691                    
PR05  14399.494444  11830.778521  17416.332200     45.986471                    
PR07  -2213.736196 -21098.739855  14230.454225    -33.865851                    
PR08 -11363.927128 -22771.728624  -1784.280295    -50.805816                    
PR09  18973.462507  -6131.325967 -15938.551922    119.677388                    
PR11 -14488.932737 -10222.769042 -18309.508229    -15.322022                    
PR12 -24846.952983  -4189.946312  -4039.702204    110.406097                    
PR13 -21257.817623   4609.746620  13304.322579    -35.526499                    
PR14  -5177.956188  10450.799129  22690.531359     48.700921                    
PR15  13670.857955  10321.457637  18912.378713    106.051177                    
PR16  24934.667349   3539.655186   3575.158874     -1.825773                    
PR17 -11522.696603  21653.118584  -7045.936004    305.569353                    
PR18    176.634176  15419.269324 -20279.403673     27.020980                    
PR19  11491.590808   1600.563766 -22710.524618    -81.743221                    
PR20  17490.494113 -15147.084261 -10781.675285   -405.509317                    
PR21  11045.393641 -21565.596611   7950.236417   -108.506483                    
PR22  -2054.673660 -13594.745611  21526.966402    -16.184840                    
PR23 -14662.002405   4674.725432  20338.835712    289.892887                    
EOF                                     
